[
    {
        "CCSDS_OMM_VERS": "3.0",
        "COMMENT": "GENERATED VIA SPACE-TRACK.ORG API",
        "CREATION_DATE": "2025-03-02T18:08:23",
        "ORIGINATOR": "18 SPCS",
        "OBJECT_NAME": "BEIDOU 3 IGSO-3",
        "OBJECT_ID": "2019-073A",
        "CENTER_NAME": "EARTH",
        "REF_FRAME": "TEME",
        "TIME_SYSTEM": "UTC",
        "MEAN_ELEMENT_THEORY": "SGP4",
        "EPOCH": "2025-03-02T00:23:07.884672",
        "MEAN_MOTION": "1.00278242",
        "ECCENTRICITY": "0.00416040",
        "INCLINATION": "55.6074",
        "RA_OF_ASC_NODE": "285.9808",
        "ARG_OF_PERICENTER": "182.0250",
        "MEAN_ANOMALY": "178.0280",
        "EPHEMERIS_TYPE": "0",
        "CLASSIFICATION_TYPE": "U",
        "NORAD_CAT_ID": "44709",
        "ELEMENT_SET_NO": "999",
        "REV_AT_EPOCH": "1972",
        "BSTAR": "0.00000000000000",
        "MEAN_MOTION_DOT": "-0.00000154",
        "MEAN_MOTION_DDOT": "0.0000000000000",
        "SEMIMAJOR_AXIS": "42162.922",
        "PERIOD": "1436.004",
        "APOAPSIS": "35960.202",
        "PERIAPSIS": "35609.372",
        "OBJECT_TYPE": "PAYLOAD",
        "RCS_SIZE": "LARGE",
        "COUNTRY_CODE": "PRC",
        "LAUNCH_DATE": "2019-11-04",
        "SITE": "XSC",
        "DECAY_DATE": null,
        "FILE": "4657142",
        "GP_ID": "282087935",
        "TLE_LINE0": "0 BEIDOU 3 IGSO-3",
        "TLE_LINE1": "1 44709U 19073A   25061.01606348 -.00000154  00000-0  00000-0 0  9997",
        "TLE_LINE2": "2 44709  55.6074 285.9808 0041604 182.0250 178.0280  1.00278242 19727"
    }
]